[{"OBJECT_NAME":"ONEWEB-0395","OBJECT_ID":"2021-132G","EPOCH":"2025-11-22T07:50:09.407328","MEAN_MOTION":13.11418071,"ECCENTRICITY":0.0001505,"INCLINATION":87.886,"RA_OF_ASC_NODE":62.2705,"ARG_OF_PERICENTER":96.1176,"MEAN_ANOMALY":264.0124,"EPHEMERIS_TYPE":0,"CLASSIFICATION_TYPE":"U","NORAD_CAT_ID":50475,"ELEMENT_SET_NO":999,"REV_AT_EPOCH":18860,"BSTAR":0.00078043,"MEAN_MOTION_DOT":2.89e-6,"MEAN_MOTION_DDOT":0},{"OBJECT_NAME":"ONEWEB-0396","OBJECT_ID":"2021-132H","EPOCH":"2025-11-22T04:13:27.552576","MEAN_MOTION":13.18686111,"ECCENTRICITY":0.0001788,"INCLINATION":87.9203,"RA_OF_ASC_NODE":16.5674,"ARG_OF_PERICENTER":101.3769,"MEAN_ANOMALY":258.7564,"EPHEMERIS_TYPE":0,"CLASSIFICATION_TYPE":"U","NORAD_CAT_ID":50476,"ELEMENT_SET_NO":999,"REV_AT_EPOCH":19435,"BSTAR":-0.0008155,"MEAN_MOTION_DOT":-3.09e-6,"MEAN_MOTION_DDOT":0},{"OBJECT_NAME":"ONEWEB-0397","OBJECT_ID":"2021-132J","EPOCH":"2025-11-22T04:34:51.168864","MEAN_MOTION":13.18685338,"ECCENTRICITY":0.0001867,"INCLINATION":87.9204,"RA_OF_ASC_NODE":16.5647,"ARG_OF_PERICENTER":106.2204,"MEAN_ANOMALY":253.9134,"EPHEMERIS_TYPE":0,"CLASSIFICATION_TYPE":"U","NORAD_CAT_ID":50477,"ELEMENT_SET_NO":999,"REV_AT_EPOCH":19433,"BSTAR":0.0001391,"MEAN_MOTION_DOT":6.8e-7,"MEAN_MOTION_DDOT":0},{"OBJECT_NAME":"ONEWEB-0398","OBJECT_ID":"2021-132K","EPOCH":"2025-11-22T05:13:53.137632","MEAN_MOTION":13.11415382,"ECCENTRICITY":0.0001552,"INCLINATION":87.8868,"RA_OF_ASC_NODE":62.2627,"ARG_OF_PERICENTER":89.841,"MEAN_ANOMALY":270.2896,"EPHEMERIS_TYPE":0,"CLASSIFICATION_TYPE":"U","NORAD_CAT_ID":50478,"ELEMENT_SET_NO":999,"REV_AT_EPOCH":18848,"BSTAR":-0.0012141,"MEAN_MOTION_DOT":-4.18e-6,"MEAN_MOTION_DDOT":0},{"OBJECT_NAME":"ONEWEB-0399","OBJECT_ID":"2021-132L","EPOCH":"2025-11-22T04:54:22.182624","MEAN_MOTION":13.11414399,"ECCENTRICITY":0.0001398,"INCLINATION":87.8864,"RA_OF_ASC_NODE":62.2816,"ARG_OF_PERICENTER":120.6252,"MEAN_ANOMALY":239.5014,"EPHEMERIS_TYPE":0,"CLASSIFICATION_TYPE":"U","NORAD_CAT_ID":50479,"ELEMENT_SET_NO":999,"REV_AT_EPOCH":18847,"BSTAR":-0.00019005,"MEAN_MOTION_DOT":-5.5e-7,"MEAN_MOTION_DDOT":0},{"OBJECT_NAME":"ONEWEB-0400","OBJECT_ID":"2021-132M","EPOCH":"2025-11-22T04:03:57.883680","MEAN_MOTION":13.18684882,"ECCENTRICITY":0.0001819,"INCLINATION":87.9203,"RA_OF_ASC_NODE":16.5589,"ARG_OF_PERICENTER":92.7769,"MEAN_ANOMALY":267.3571,"EPHEMERIS_TYPE":0,"CLASSIFICATION_TYPE":"U","NORAD_CAT_ID":50480,"ELEMENT_SET_NO":999,"REV_AT_EPOCH":19432,"BSTAR":0.0001914,"MEAN_MOTION_DOT":8.8e-7,"MEAN_MOTION_DDOT":0},{"OBJECT_NAME":"ONEWEB-0401","OBJECT_ID":"2021-132N","EPOCH":"2025-11-22T03:18:49.358592","MEAN_MOTION":13.18689301,"ECCENTRICITY":0.0001937,"INCLINATION":87.9203,"RA_OF_ASC_NODE":16.562,"ARG_OF_PERICENTER":103.0126,"MEAN_ANOMALY":257.1222,"EPHEMERIS_TYPE":0,"CLASSIFICATION_TYPE":"U","NORAD_CAT_ID":50481,"ELEMENT_SET_NO":999,"REV_AT_EPOCH":19432,"BSTAR":0.00011153,"MEAN_MOTION_DOT":5.7e-7,"MEAN_MOTION_DDOT":0},{"OBJECT_NAME":"ONEWEB-0402","OBJECT_ID":"2021-132P","EPOCH":"2025-11-22T04:15:50.019264","MEAN_MOTION":13.18685371,"ECCENTRICITY":0.000235,"INCLINATION":87.9204,"RA_OF_ASC_NODE":16.5467,"ARG_OF_PERICENTER":110.3696,"MEAN_ANOMALY":249.7689,"EPHEMERIS_TYPE":0,"CLASSIFICATION_TYPE":"U","NORAD_CAT_ID":50482,"ELEMENT_SET_NO":999,"REV_AT_EPOCH":19435,"BSTAR":-0.00068741,"MEAN_MOTION_DOT":-2.58e-6,"MEAN_MOTION_DDOT":0},{"OBJECT_NAME":"ONEWEB-0403","OBJECT_ID":"2021-132Q","EPOCH":"2025-11-22T04:51:27.307296","MEAN_MOTION":13.1868852,"ECCENTRICITY":0.0001697,"INCLINATION":87.9205,"RA_OF_ASC_NODE":16.563,"ARG_OF_PERICENTER":99.4603,"MEAN_ANOMALY":260.6721,"EPHEMERIS_TYPE":0,"CLASSIFICATION_TYPE":"U","NORAD_CAT_ID":50483,"ELEMENT_SET_NO":999,"REV_AT_EPOCH":19431,"BSTAR":9.8344e-5,"MEAN_MOTION_DOT":5.2e-7,"MEAN_MOTION_DDOT":0},{"OBJECT_NAME":"ONEWEB-0404","OBJECT_ID":"2021-132R","EPOCH":"2025-11-22T08:07:15.013344","MEAN_MOTION":13.11416166,"ECCENTRICITY":0.0001382,"INCLINATION":87.8864,"RA_OF_ASC_NODE":62.2637,"ARG_OF_PERICENTER":109.7557,"MEAN_ANOMALY":250.372,"EPHEMERIS_TYPE":0,"CLASSIFICATION_TYPE":"U","NORAD_CAT_ID":50484,"ELEMENT_SET_NO":999,"REV_AT_EPOCH":18858,"BSTAR":0.0016381,"MEAN_MOTION_DOT":5.93e-6,"MEAN_MOTION_DDOT":0},{"OBJECT_NAME":"ONEWEB-0405","OBJECT_ID":"2021-132S","EPOCH":"2025-11-22T05:12:50.366304","MEAN_MOTION":13.18688435,"ECCENTRICITY":0.0001923,"INCLINATION":87.9207,"RA_OF_ASC_NODE":16.5442,"ARG_OF_PERICENTER":108.0455,"MEAN_ANOMALY":252.0886,"EPHEMERIS_TYPE":0,"CLASSIFICATION_TYPE":"U","NORAD_CAT_ID":50485,"ELEMENT_SET_NO":999,"REV_AT_EPOCH":19471,"BSTAR":-3.79e-5,"MEAN_MOTION_DOT":-2.0e-8,"MEAN_MOTION_DDOT":0},{"OBJECT_NAME":"ONEWEB-0406","OBJECT_ID":"2021-132T","EPOCH":"2025-11-22T03:09:19.720800","MEAN_MOTION":13.18684212,"ECCENTRICITY":0.0001368,"INCLINATION":87.9209,"RA_OF_ASC_NODE":16.5858,"ARG_OF_PERICENTER":90.888,"MEAN_ANOMALY":269.2409,"EPHEMERIS_TYPE":0,"CLASSIFICATION_TYPE":"U","NORAD_CAT_ID":50486,"ELEMENT_SET_NO":999,"REV_AT_EPOCH":19433,"BSTAR":0.00011979,"MEAN_MOTION_DOT":6.0e-7,"MEAN_MOTION_DDOT":0},{"OBJECT_NAME":"ONEWEB-0407","OBJECT_ID":"2021-132U","EPOCH":"2025-11-22T04:49:05.029824","MEAN_MOTION":13.18688243,"ECCENTRICITY":0.0001974,"INCLINATION":87.9206,"RA_OF_ASC_NODE":16.5556,"ARG_OF_PERICENTER":98.5963,"MEAN_ANOMALY":261.5392,"EPHEMERIS_TYPE":0,"CLASSIFICATION_TYPE":"U","NORAD_CAT_ID":50487,"ELEMENT_SET_NO":999,"REV_AT_EPOCH":19428,"BSTAR":0.0001188,"MEAN_MOTION_DOT":6.0e-7,"MEAN_MOTION_DDOT":0},{"OBJECT_NAME":"ONEWEB-0409","OBJECT_ID":"2021-132V","EPOCH":"2025-11-22T08:04:49.220256","MEAN_MOTION":13.11417833,"ECCENTRICITY":0.000135,"INCLINATION":87.8879,"RA_OF_ASC_NODE":62.2298,"ARG_OF_PERICENTER":101.3374,"MEAN_ANOMALY":258.7906,"EPHEMERIS_TYPE":0,"CLASSIFICATION_TYPE":"U","NORAD_CAT_ID":50488,"ELEMENT_SET_NO":999,"REV_AT_EPOCH":18847,"BSTAR":0.0017658,"MEAN_MOTION_DOT":6.39e-6,"MEAN_MOTION_DDOT":0},{"OBJECT_NAME":"ONEWEB-0412","OBJECT_ID":"2021-132W","EPOCH":"2025-11-22T04:32:27.922848","MEAN_MOTION":13.18684627,"ECCENTRICITY":0.0002049,"INCLINATION":87.9205,"RA_OF_ASC_NODE":16.5709,"ARG_OF_PERICENTER":106.9269,"MEAN_ANOMALY":253.2088,"EPHEMERIS_TYPE":0,"CLASSIFICATION_TYPE":"U","NORAD_CAT_ID":50489,"ELEMENT_SET_NO":999,"REV_AT_EPOCH":19437,"BSTAR":5.0154e-5,"MEAN_MOTION_DOT":3.3e-7,"MEAN_MOTION_DDOT":0},{"OBJECT_NAME":"ONEWEB-0413","OBJECT_ID":"2021-132X","EPOCH":"2025-11-22T04:39:36.993024","MEAN_MOTION":13.18686579,"ECCENTRICITY":0.000216,"INCLINATION":87.9194,"RA_OF_ASC_NODE":16.5847,"ARG_OF_PERICENTER":103.2577,"MEAN_ANOMALY":256.8796,"EPHEMERIS_TYPE":0,"CLASSIFICATION_TYPE":"U","NORAD_CAT_ID":50490,"ELEMENT_SET_NO":999,"REV_AT_EPOCH":19431,"BSTAR":0.00016345,"MEAN_MOTION_DOT":7.7e-7,"MEAN_MOTION_DDOT":0},{"OBJECT_NAME":"ONEWEB-0414","OBJECT_ID":"2021-132Y","EPOCH":"2025-11-22T04:18:12.701088","MEAN_MOTION":13.1868435,"ECCENTRICITY":0.000185,"INCLINATION":87.9205,"RA_OF_ASC_NODE":16.5489,"ARG_OF_PERICENTER":105.3577,"MEAN_ANOMALY":254.776,"EPHEMERIS_TYPE":0,"CLASSIFICATION_TYPE":"U","NORAD_CAT_ID":50491,"ELEMENT_SET_NO":999,"REV_AT_EPOCH":19434,"BSTAR":9.3439e-5,"MEAN_MOTION_DOT":5.0e-7,"MEAN_MOTION_DDOT":0},{"OBJECT_NAME":"ONEWEB-0417","OBJECT_ID":"2021-132Z","EPOCH":"2025-11-22T04:30:05.247072","MEAN_MOTION":13.18684143,"ECCENTRICITY":0.0001626,"INCLINATION":87.9206,"RA_OF_ASC_NODE":16.5812,"ARG_OF_PERICENTER":98.4696,"MEAN_ANOMALY":261.662,"EPHEMERIS_TYPE":0,"CLASSIFICATION_TYPE":"U","NORAD_CAT_ID":50492,"ELEMENT_SET_NO":999,"REV_AT_EPOCH":19432,"BSTAR":1.2056e-5,"MEAN_MOTION_DOT":1.8e-7,"MEAN_MOTION_DDOT":0},{"OBJECT_NAME":"ONEWEB-0418","OBJECT_ID":"2021-132AA","EPOCH":"2025-11-22T04:44:08.718432","MEAN_MOTION":13.1868875,"ECCENTRICITY":0.0001371,"INCLINATION":87.9204,"RA_OF_ASC_NODE":16.5639,"ARG_OF_PERICENTER":99.1659,"MEAN_ANOMALY":260.9628,"EPHEMERIS_TYPE":0,"CLASSIFICATION_TYPE":"U","NORAD_CAT_ID":50493,"ELEMENT_SET_NO":999,"REV_AT_EPOCH":19438,"BSTAR":0.00018483,"MEAN_MOTION_DOT":8.6e-7,"MEAN_MOTION_DDOT":0},{"OBJECT_NAME":"ONEWEB-0419","OBJECT_ID":"2021-132AB","EPOCH":"2025-11-22T05:10:28.058592","MEAN_MOTION":13.18684081,"ECCENTRICITY":0.0001607,"INCLINATION":87.9208,"RA_OF_ASC_NODE":16.5605,"ARG_OF_PERICENTER":90.1497,"MEAN_ANOMALY":269.9819,"EPHEMERIS_TYPE":0,"CLASSIFICATION_TYPE":"U","NORAD_CAT_ID":50494,"ELEMENT_SET_NO":999,"REV_AT_EPOCH":19430,"BSTAR":-6.9886e-5,"MEAN_MOTION_DOT":-1.5e-7,"MEAN_MOTION_DDOT":0},{"OBJECT_NAME":"ONEWEB-0420","OBJECT_ID":"2021-132AC","EPOCH":"2025-11-22T04:20:36.627072","MEAN_MOTION":13.18688366,"ECCENTRICITY":0.0002044,"INCLINATION":87.9205,"RA_OF_ASC_NODE":16.5786,"ARG_OF_PERICENTER":99.4639,"MEAN_ANOMALY":260.6724,"EPHEMERIS_TYPE":0,"CLASSIFICATION_TYPE":"U","NORAD_CAT_ID":50495,"ELEMENT_SET_NO":999,"REV_AT_EPOCH":19429,"BSTAR":0.00020937,"MEAN_MOTION_DOT":9.5e-7,"MEAN_MOTION_DDOT":0},{"OBJECT_NAME":"ONEWEB-0421","OBJECT_ID":"2021-132AD","EPOCH":"2025-11-22T04:11:05.289792","MEAN_MOTION":13.18688689,"ECCENTRICITY":0.0001917,"INCLINATION":87.9205,"RA_OF_ASC_NODE":16.5733,"ARG_OF_PERICENTER":108.6093,"MEAN_ANOMALY":251.5248,"EPHEMERIS_TYPE":0,"CLASSIFICATION_TYPE":"U","NORAD_CAT_ID":50496,"ELEMENT_SET_NO":999,"REV_AT_EPOCH":19433,"BSTAR":0.00014063,"MEAN_MOTION_DOT":6.8e-7,"MEAN_MOTION_DDOT":0},{"OBJECT_NAME":"ONEWEB-0424","OBJECT_ID":"2021-132AE","EPOCH":"2025-11-22T05:03:20.698272","MEAN_MOTION":13.18688246,"ECCENTRICITY":0.0001736,"INCLINATION":87.9206,"RA_OF_ASC_NODE":16.5616,"ARG_OF_PERICENTER":86.6962,"MEAN_ANOMALY":273.4369,"EPHEMERIS_TYPE":0,"CLASSIFICATION_TYPE":"U","NORAD_CAT_ID":50497,"ELEMENT_SET_NO":999,"REV_AT_EPOCH":19436,"BSTAR":0.00019048,"MEAN_MOTION_DOT":8.8e-7,"MEAN_MOTION_DDOT":0},{"OBJECT_NAME":"ONEWEB-0426","OBJECT_ID":"2021-132AF","EPOCH":"2025-11-22T04:06:19.852704","MEAN_MOTION":13.18685386,"ECCENTRICITY":0.0001587,"INCLINATION":87.9206,"RA_OF_ASC_NODE":16.5605,"ARG_OF_PERICENTER":119.3329,"MEAN_ANOMALY":240.7962,"EPHEMERIS_TYPE":0,"CLASSIFICATION_TYPE":"U","NORAD_CAT_ID":50498,"ELEMENT_SET_NO":999,"REV_AT_EPOCH":19430,"BSTAR":0.00022124,"MEAN_MOTION_DOT":1.0e-6,"MEAN_MOTION_DDOT":0}]
